NORAD_CAT_ID,OBJECT_NAME,OBJECT_TYPE,EPOCH,MEAN_MOTION,ECCENTRICITY,INCLINATION,RA_OF_ASC_NODE,ARG_OF_PERICENTER,MEAN_ANOMALY,BSTAR,MEAN_MOTION_DOT,MEAN_MOTION_DDOT,TLE_LINE0,TLE_LINE1,TLE_LINE2,SEMIMAJOR_AXIS,PERIOD,APOGEE,PERIGEE,DECAYED
53736.0,STARLINK-4652,PAYLOAD,2023-12-26 03:44:29,15.08845996,0.0001525,53.216,266.0035,99.2468,260.8696,0.00012091,1.637e-05,0.0,0 STARLINK-4652,1 53736U 22107AN  23360.15590003  .00001637  00000-0  12091-3 0  9996,2 53736  53.2160 266.0035 0001525  99.2468 260.8696 15.08845996 72490,6917.862,95.437,540.782,538.672,0.0
53736.0,STARLINK-4652,PAYLOAD,2023-12-26 18:02:58,15.08839034,0.0001685,53.2164,263.3233,105.5933,254.5245,-0.000176,-3.088e-05,0.0,0 STARLINK-4652,1 53736U 22107AN  23360.75206504 -.00003088  00000-0 -17600-3 0  9997,2 53736  53.2164 263.3233 0001685 105.5933 254.5245 15.08839034 72585,6917.883,95.438,540.914,538.583,0.0
53736.0,STARLINK-4652,PAYLOAD,2023-12-26 22:49:07,15.08843787,0.0001553,53.2153,262.4311,104.5193,255.5971,2.2962e-05,7.7e-07,0.0,0 STARLINK-4652,1 53736U 22107AN  23360.95078203  .00000077  00000-0  22962-4 0  9993,2 53736  53.2153 262.4311 0001553 104.5193 255.5971 15.08843787 73242,6917.869,95.437,540.808,538.659,0.0
53736.0,STARLINK-4652,PAYLOAD,2023-12-27 03:35:17,15.08844104,0.000158,53.216,261.5434,94.3707,265.7466,8.0131e-05,9.88e-06,0.0,0 STARLINK-4652,1 53736U 22107AN  23361.14950345  .00000988  00000-0  80131-4 0  9994,2 53736  53.2160 261.5434 0001580  94.3707 265.7466 15.08844104 73272,6917.868,95.437,540.826,538.64,0.0
53736.0,STARLINK-4652,PAYLOAD,2023-12-27 22:39:54,15.08847972,0.0001762,53.2153,257.9732,121.4616,238.6549,-7.662e-05,-1.508e-05,0.0,0 STARLINK-4652,1 53736U 22107AN  23361.94438235 -.00001508  00000-0 -76620-4 0  9990,2 53736  53.2153 257.9732 0001762 121.4616 238.6549 15.08847972 73397,6917.856,95.437,540.94,538.502,0.0
53736.0,STARLINK-4652,PAYLOAD,2023-12-28 22:30:42,15.08840933,0.0001535,53.2151,253.5139,104.8405,255.2757,7.2131e-05,8.6e-06,0.0,0 STARLINK-4652,1 53736U 22107AN  23362.93798660  .00000860  00000-0  72131-4 0  9992,2 53736  53.2151 253.5139 0001535 104.8405 255.2757 15.08840933 73540,6917.878,95.437,540.804,538.681,0.0
53736.0,STARLINK-4652,PAYLOAD,2023-12-29 03:16:51,15.08841446,0.0001488,53.2155,252.6233,94.5586,265.5576,6.6306e-05,7.67e-06,0.0,0 STARLINK-4652,1 53736U 22107AN  23363.13670664  .00000767  00000-0  66306-4 0  9991,2 53736  53.2155 252.6233 0001488  94.5586 265.5576 15.08841446 72947,6917.876,95.437,540.77,538.712,0.0
53736.0,STARLINK-4652,PAYLOAD,2023-12-29 22:21:29,15.08838684,0.000145,53.216,249.0553,97.2085,262.9072,7.659e-05,9.31e-06,0.0,0 STARLINK-4652,1 53736U 22107AN  23363.93159085  .00000931  00000-0  76590-4 0  9997,2 53736  53.2160 249.0553 0001450  97.2085 262.9072 15.08838684 73696,6917.884,95.438,540.753,538.746,0.0
53736.0,STARLINK-4652,PAYLOAD,2023-12-29 23:56:53,15.08807671,0.000158,53.2162,248.7571,88.6612,271.4561,0.00059408,9.171e-05,0.0,0 STARLINK-4652,1 53736U 22107AN  23363.99783810  .00009171  00000-0  59408-3 0  9995,2 53736  53.2162 248.7571 0001580  88.6612 271.4561 15.08807671 73070,6917.979,95.44,540.937,538.751,0.0
53736.0,STARLINK-4652,PAYLOAD,2023-12-30 15:50:44,15.08831675,0.0001583,53.2165,245.7838,73.8336,286.2831,0.00018749,2.697e-05,0.0,0 STARLINK-4652,1 53736U 22107AN  23364.66023281  .00002697  00000-0  18749-3 0  9998,2 53736  53.2165 245.7838 0001583  73.8336 286.2831 15.08831675 73174,6917.906,95.438,540.866,538.676,0.0
53736.0,STARLINK-4652,PAYLOAD,2023-12-30 22:12:16,15.08840029,0.000146,53.2161,244.5942,78.9674,281.1483,6.0641e-05,6.77e-06,0.0,0 STARLINK-4652,1 53736U 22107AN  23364.92519105  .00000677  00000-0  60641-4 0  9997,2 53736  53.2161 244.5942 0001460  78.9674 281.1483 15.08840029 73842,6917.88,95.438,540.755,538.735,0.0
53736.0,STARLINK-4652,PAYLOAD,2023-12-31 18:52:17,15.08837846,0.0001678,53.2162,240.7292,70.098,290.0193,3.4161e-05,2.56e-06,0.0,0 STARLINK-4652,1 53736U 22107AN  23365.78631556  .00000256  00000-0  34161-4 0  9998,2 53736  53.2162 240.7292 0001678  70.0980 290.0193 15.08837846 73348,6917.887,95.438,540.913,538.591,0.0
53736.0,STARLINK-4652,PAYLOAD,2023-12-31 20:27:40,15.08838208,0.0001566,53.216,240.4318,74.4346,285.6819,2.8638e-05,1.68e-06,0.0,0 STARLINK-4652,1 53736U 22107AN  23365.85255454  .00000168  00000-0  28638-4 0  9999,2 53736  53.2160 240.4318 0001566  74.4346 285.6819 15.08838208 73980,6917.886,95.438,540.834,538.668,0.0
53736.0,STARLINK-4652,PAYLOAD,2024-01-01 20:18:26,15.08846802,0.0001506,53.2156,235.9717,80.7994,279.3169,0.00013978,1.938e-05,0.0,0 STARLINK-4652,1 53736U 22107AN  24001.84614451  .00001938  00000-0  13978-3 0  9998,2 53736  53.2156 235.9717 0001506  80.7994 279.3169 15.08846802 73505,6917.86,95.437,540.766,538.683,0.0
53736.0,STARLINK-4652,PAYLOAD,2024-01-01 21:53:49,15.08847566,0.0001508,53.2156,235.6743,80.4097,279.7065,0.00014568,2.032e-05,0.0,0 STARLINK-4652,1 53736U 22107AN  24001.91238396  .00002032  00000-0  14568-3 0  9998,2 53736  53.2156 235.6743 0001508  80.4097 279.7065 15.08847566 74142,6917.857,95.437,540.765,538.679,0.0
53736.0,STARLINK-4652,PAYLOAD,2024-01-02 01:04:35,15.08850656,0.0001508,53.2156,235.0791,82.0498,278.0665,0.00016363,2.318e-05,0.0,0 STARLINK-4652,1 53736U 22107AN  24002.04486104  .00002318  00000-0  16363-3 0  9997,2 53736  53.2156 235.0791 0001508  82.0498 278.0665 15.08850656 74166,6917.848,95.437,540.756,538.67,0.0
53736.0,STARLINK-4652,PAYLOAD,2024-01-02 20:09:14,15.08842718,0.000137,53.215,231.5118,91.3395,268.7754,5.1993e-05,5.4e-06,0.0,0 STARLINK-4652,1 53736U 22107AN  24002.83974718  .00000540  00000-0  51993-4 0  9991,2 53736  53.2150 231.5118 0001370  91.3395 268.7754 15.08842718 73658,6917.872,95.437,540.685,538.789,0.0
53736.0,STARLINK-4652,PAYLOAD,2024-01-02 21:44:37,15.08842341,0.0001368,53.2149,231.2144,91.2629,268.852,4.5303e-05,4.33e-06,0.0,0 STARLINK-4652,1 53736U 22107AN  24002.90598705  .00000433  00000-0  45303-4 0  9996,2 53736  53.2149 231.2144 0001368  91.2629 268.8520 15.08842341 74293,6917.873,95.437,540.685,538.792,0.0
53736.0,STARLINK-4652,PAYLOAD,2024-01-03 20:00:02,15.08839013,0.000147,53.2154,227.0483,104.034,256.0815,-3.0752e-05,-7.77e-06,0.0,0 STARLINK-4652,1 53736U 22107AN  24003.83336264 -.00000777  00000-0 -30752-4 0  9994,2 53736  53.2154 227.0483 0001470 104.0340 256.0815 15.08839013 73809,6917.883,95.438,540.765,538.731,0.0
53736.0,STARLINK-4652,PAYLOAD,2024-01-03 21:35:25,15.08842897,0.0001334,53.2153,226.7509,95.4173,264.6971,6.0174e-06,-1.92e-06,0.0,0 STARLINK-4652,1 53736U 22107AN  24003.89959991 -.00000192  00000-0  60174-5 0  9990,2 53736  53.2153 226.7509 0001334  95.4173 264.6971 15.08842897 74442,6917.872,95.437,540.659,538.814,0.0
53736.0,STARLINK-4652,PAYLOAD,2024-01-04 00:46:11,15.08840732,0.0001391,53.2153,226.1566,97.7398,262.3752,-1.1286e-05,-4.68e-06,0.0,0 STARLINK-4652,1 53736U 22107AN  24004.03208150 -.00000468  00000-0 -11286-4 0  9997,2 53736  53.2153 226.1566 0001391  97.7398 262.3752 15.08840732 74466,6917.878,95.438,540.705,538.781,0.0
53736.0,STARLINK-4652,PAYLOAD,2024-01-04 19:50:48,15.08847437,0.0001289,53.2149,222.5908,90.9068,269.2072,0.000159,2.244e-05,0.0,0 STARLINK-4652,1 53736U 22107AN  24004.82695217  .00002244  00000-0  15900-3 0  9996,2 53736  53.2149 222.5908 0001289  90.9068 269.2072 15.08847437 73959,6917.858,95.437,540.614,538.831,0.0
53736.0,STARLINK-4652,PAYLOAD,2024-01-05 13:20:03,15.08850227,0.0001378,53.2153,219.3217,101.7055,258.4092,5.0544e-05,5.17e-06,0.0,0 STARLINK-4652,1 53736U 22107AN  24005.55559798  .00000517  00000-0  50544-4 0  9995,2 53736  53.2153 219.3217 0001378 101.7055 258.4092 15.08850227 74063,6917.849,95.437,540.667,538.761,0.0
53736.0,STARLINK-4652,PAYLOAD,2024-01-05 19:41:36,15.08846691,0.0001266,53.2147,218.1289,94.7065,265.4072,2.6184e-05,1.29e-06,0.0,0 STARLINK-4652,1 53736U 22107AN  24005.82055954  .00000129  00000-0  26184-4 0  9992,2 53736  53.2147 218.1289 0001266  94.7065 265.4072 15.08846691 74730,6917.86,95.437,540.601,538.849,0.0
53736.0,STARLINK-4652,PAYLOAD,2024-01-06 21:07:46,15.08844535,0.0001287,53.2147,213.3714,90.8505,269.2634,-2.155e-05,-6.31e-06,0.0,0 STARLINK-4652,1 53736U 22107AN  24006.88039798 -.00000631  00000-0 -21550-4 0  9999,2 53736  53.2147 213.3714 0001287  90.8505 269.2634 15.08844535 74897,6917.867,95.437,540.622,538.841,0.0
53736.0,STARLINK-4652,PAYLOAD,2024-01-06 22:43:09,15.08844756,0.0001294,53.2147,213.0739,88.731,271.383,-1.8978e-05,-5.9e-06,0.0,0 STARLINK-4652,1 53736U 22107AN  24006.94663759 -.00000590  00000-0 -18978-4 0  9990,2 53736  53.2147 213.0739 0001294  88.7310 271.3830 15.08844756 74278,6917.866,95.437,540.626,538.836,0.0
53736.0,STARLINK-4652,PAYLOAD,2024-01-07 13:01:37,15.08843151,0.0001249,53.2147,210.398,87.9341,272.1794,4.8948e-05,4.91e-06,0.0,0 STARLINK-4652,1 53736U 22107AN  24007.54279464  .00000491  00000-0  48948-4 0  9991,2 53736  53.2147 210.3980 0001249  87.9341 272.1794 15.08843151 74996,6917.871,95.437,540.6,538.872,0.0
53736.0,STARLINK-4652,PAYLOAD,2024-01-07 20:58:32,15.08845154,0.0001297,53.2149,208.911,87.3488,272.7652,5.9362e-05,6.57e-06,0.0,0 STARLINK-4652,1 53736U 22107AN  24007.87399220  .00000657  00000-0  59362-4 0  9996,2 53736  53.2149 208.9110 0001297  87.3488 272.7652 15.08845154 75046,6917.865,95.437,540.627,538.832,0.0
53736.0,STARLINK-4652,PAYLOAD,2024-01-08 19:13:57,15.0884053,0.0001366,53.2149,204.7478,83.3061,276.8086,3.0371e-05,1.95e-06,0.0,0 STARLINK-4652,1 53736U 22107AN  24008.80135505  .00000195  00000-0  30371-4 0  9990,2 53736  53.2149 204.7478 0001366  83.3061 276.8086 15.08840530 74551,6917.879,95.438,540.689,538.799,0.0
53736.0,STARLINK-4652,PAYLOAD,2024-01-09 12:43:11,15.08842541,0.000138,53.2149,201.4766,83.4681,276.6468,1.7927e-05,-3e-08,0.0,0 STARLINK-4652,1 53736U 22107AN  24009.52999349 -.00000003  00000-0  17927-4 0  9995,2 53736  53.2149 201.4766 0001380  83.4681 276.6468 15.08842541 75298,6917.873,95.437,540.692,538.783,0.0
